H1 CPF 01  gfz 2022 01 01 01  5011 tandemx   
H2 1003001  6202 36605    2022 01 01 00 59 42 2022 01 06 00 00 42   120 1 1  0 0 0
H9
10 0 59580  20142.000000  0    4682611.999   -137543.416  -5058590.370
10 0 59580  20262.000000  0    3979812.941   -325262.488  -5620869.436
10 0 59580  20382.000000  0    3204822.770   -494405.270  -6084904.869
10 0 59580  20502.000000  0    2371500.752   -640901.644  -6442678.122
10 0 59580  20622.000000  0    1494751.539   -761328.535  -6688019.508
10 0 59580  20742.000000  0     590260.259   -852983.024  -6816704.450
10 0 59580  20862.000000  0    -325784.864   -913937.995  -6826518.887
10 0 59580  20982.000000  0   -1236975.760   -943079.838  -6717292.354
10 0 59580  21102.000000  0   -2126971.519   -940128.289  -6490901.328
10 0 59580  21222.000000  0   -2979785.186   -905637.511  -6151239.479
10 0 59580  21342.000000  0   -3780064.178   -840979.041  -5704157.817
10 0 59580  21462.000000  0   -4513365.343   -748306.667  -5157375.729
10 0 59580  21582.000000  0   -5166418.128   -630503.159  -4520358.644
10 0 59580  21702.000000  0   -5727370.295   -491110.525  -3804165.779
10 0 59580  21822.000000  0   -6186013.346   -334244.266  -3021268.062
10 0 59580  21942.000000  0   -6533980.278   -164492.611  -2185337.075
10 0 59580  22062.000000  0   -6764911.678     13195.857  -1311009.778
10 0 59580  22182.000000  0   -6874585.977    193635.551   -413630.481
10 0 59580  22302.000000  0   -6861005.745    371533.657    491025.152
10 0 59580  22422.000000  0   -6724439.952    541623.733   1387033.754
10 0 59580  22542.000000  0   -6467422.574    698799.251   2258613.051
10 0 59580  22662.000000  0   -6094704.794    838243.885   3090409.457
10 0 59580  22782.000000  0   -5613161.588    955555.208   3867776.952
10 0 59580  22902.000000  0   -5031655.939   1046858.379   4577040.121
10 0 59580  23022.000000  0   -4360865.603   1108907.091   5205736.641
10 0 59580  23142.000000  0   -3613077.150   1139169.241   5742834.699
10 0 59580  23262.000000  0   -2801952.494   1135895.999   6178923.562
10 0 59580  23382.000000  0   -1942271.778   1098172.503   6506374.412
10 0 59580  23502.000000  0   -1049657.407   1025950.011   6719467.658
10 0 59580  23622.000000  0    -140287.311    920057.843   6814485.523
10 0 59580  23742.000000  0     769397.972    782195.573   6789772.159
10 0 59580  23862.000000  0    1662991.257    614905.726   6645760.474
10 0 59580  23982.000000  0    2524413.316    421527.448   6384965.151
10 0 59580  24102.000000  0    3338201.941    206131.523   6011942.484
10 0 59580  24222.000000  0    4089791.833    -26562.586   5533215.723
10 0 59580  24342.000000  0    4765779.009   -271286.083   4957166.673
10 0 59580  24462.000000  0    5354165.993   -522334.615   4293894.804
10 0 59580  24582.000000  0    5844583.115   -773694.838   3555045.181
10 0 59580  24702.000000  0    6228481.834  -1019180.805   2753606.674
10 0 59580  24822.000000  0    6499293.732  -1252577.236   1903682.459
10 0 59580  24942.000000  0    6652550.642  -1467785.346   1020237.968
10 0 59580  25062.000000  0    6685964.523  -1658969.599    118832.195
10 0 59580  25182.000000  0    6599464.155  -1820701.074   -784665.416
10 0 59580  25302.000000  0    6395185.043  -1948091.831  -1674363.431
10 0 59580  25422.000000  0    6077415.885  -2036918.737  -2534636.421
10 0 59580  25542.000000  0    5652501.235  -2083732.672  -3350405.585
10 0 59580  25662.000000  0    5128705.080  -2085950.787  -4107405.512
10 0 59580  25782.000000  0    4516039.997  -2041929.833  -4792433.003
10 0 59580  25902.000000  0    3826065.091  -1951019.497  -5393573.761
10 0 59580  26022.000000  0    3071657.742  -1813594.583  -5900401.650
10 0 59580  26142.000000  0    2266767.330  -1631065.321  -6304148.405
10 0 59580  26262.000000  0    1426155.321  -1405866.199  -6597845.375
10 0 59580  26382.000000  0     565123.951  -1141423.781  -6776433.015
10 0 59580  26502.000000  0    -300758.729   -842104.956  -6836838.520
10 0 59580  26622.000000  0   -1155934.384   -513145.711  -6778022.496
10 0 59580  26742.000000  0   -1985127.477   -160561.622  -6600995.259
10 0 59580  26862.000000  0   -2773612.046    208959.449  -6308800.398
10 0 59580  26982.000000  0   -3507467.175    588179.876  -5906467.973
10 0 59580  27102.000000  0   -4173820.581    969449.462  -5400938.129
10 0 59580  27222.000000  0   -4761076.164   1344854.488  -4800952.366
10 0 59580  27342.000000  0   -5259121.628   1706377.944  -4116915.089
10 0 59580  27462.000000  0   -5659511.227   2046067.467  -3360722.624
10 0 59580  27582.000000  0   -5955619.234   2356205.990  -2545564.359
10 0 59580  27702.000000  0   -6142761.511   2629482.711  -1685697.403
10 0 59580  27822.000000  0   -6218280.696   2859160.338   -796197.844
10 0 59580  27942.000000  0   -6181592.319   3039234.165    107307.025
10 0 59580  28062.000000  0   -6034189.126   3164578.093   1008920.674
10 0 59580  28182.000000  0   -5779602.181   3231074.141   1892765.814
10 0 59580  28302.000000  0   -5423320.850   3235721.760   2743273.122
10 0 59580  28422.000000  0   -4972673.841   3176724.274   3545463.485
10 0 59580  28542.000000  0   -4436674.095   3053549.693   4285218.877
10 0 59580  28662.000000  0   -3825831.303   2866964.484   4949534.080
10 0 59580  28782.000000  0   -3151938.945   2619040.872   5526745.239
10 0 59580  28902.000000  0   -2427839.458   2313137.783   6006733.347
10 0 59580  29022.000000  0   -1667172.549   1953854.722   6381097.220
10 0 59580  29142.000000  0    -884112.918   1546960.486   6643294.125
10 0 59580  29262.000000  0     -93104.386   1099298.363   6788746.570
10 0 59580  29382.000000  0     691406.005    618669.624   6814917.185
10 0 59580  29502.000000  0    1455230.993    113697.522   6721349.862
10 0 59580  29622.000000  0    2184698.343   -406326.585   6509677.404
10 0 59580  29742.000000  0    2866894.964   -931613.666   6183595.689
10 0 59580  29862.000000  0    3489896.900  -1452060.141   5748803.858
10 0 59580  29982.000000  0    4042981.494  -1957441.912   5212910.220
10 0 59580  30102.000000  0    4516816.081  -2437615.129   4585304.372
10 0 59580  30222.000000  0    4903621.769  -2882720.646   3876999.098
10 0 59580  30342.000000  0    5197309.313  -3283388.617   3100440.813
10 0 59580  30462.000000  0    5393581.962  -3630936.943   2269290.297
10 0 59580  30582.000000  0    5490001.715  -3917559.503   1398179.882
10 0 59580  30702.000000  0    5486019.193  -4136500.456    502451.028
10 0 59580  30822.000000  0    5382965.384  -4282208.238   -402123.086
10 0 59580  30942.000000  0    5184005.459  -4350467.026  -1299624.109
10 0 59580  31062.000000  0    4894055.071  -4338500.416  -2174277.633
10 0 59580  31182.000000  0    4519661.670  -4245045.566  -3010737.846
10 0 59580  31302.000000  0    4068854.735  -4070396.534  -3794361.387
10 0 59580  31422.000000  0    3550968.715  -3816415.401  -4511465.034
10 0 59580  31542.000000  0    2976444.078  -3486512.353  -5149561.913
10 0 59580  31662.000000  0    2356611.394  -3085595.400  -5697572.232
10 0 59580  31782.000000  0    1703465.003  -2619992.501  -6146005.115
10 0 59580  31902.000000  0    1029430.596  -2097348.425  -6487113.253
10 0 59580  32022.000000  0     347129.113  -1526495.549  -6715017.012
10 0 59580  32142.000000  0    -330856.739   -917303.116  -6825794.942
10 0 59580  32262.000000  0    -992209.175   -280508.348  -6817542.879
10 0 59580  32382.000000  0   -1625093.648    372468.640  -6690402.884
10 0 59580  32502.000000  0   -2218365.839   1029724.377  -6446560.482
10 0 59580  32622.000000  0   -2761763.354   1679083.492  -6090211.262
10 0 59580  32742.000000  0   -3246080.808   2308318.801  -5627496.895
10 0 59580  32862.000000  0   -3663326.806   2905378.390  -5066411.049
10 0 59580  32982.000000  0   -4006860.307   3458615.878  -4416672.871
10 0 59580  33102.000000  0   -4271501.825   3957018.716  -3689568.291
10 0 59580  33222.000000  0   -4453616.282   4390430.297  -2897762.907
10 0 59580  33342.000000  0   -4551167.977   4749761.533  -2055087.933
10 0 59580  33462.000000  0   -4563744.614   5027185.740  -1176301.365
10 0 59580  33582.000000  0   -4492550.146   5216313.579   -276828.437
10 0 59580  33702.000000  0   -4340363.229   5312341.308    627515.487
10 0 59580  33822.000000  0   -4111464.103   5312168.263   1520809.845
10 0 59580  33942.000000  0   -3811530.821   5214480.742   2387320.000
10 0 59580  34062.000000  0   -3447505.833   5019797.781   3211783.886
10 0 59580  34182.000000  0   -3027437.667   4730480.152   3979687.421
10 0 59580  34302.000000  0   -2560303.509   4350702.960   4677524.344
10 0 59580  34422.000000  0   -2055815.648   3886391.502   5293035.931
10 0 59580  34542.000000  0   -1524217.267   3345122.246   5815425.512
10 0 59580  34662.000000  0    -976071.917   2735991.983   6235543.890
10 0 59580  34782.000000  0    -422052.355   2069458.135   6546043.046
10 0 59580  34902.000000  0     127266.528   1357155.575   6741498.096
10 0 59580  35022.000000  0     661609.276    611690.779   6818497.095
10 0 59580  35142.000000  0    1171191.242   -153581.602   6775695.830
10 0 59580  35262.000000  0    1646896.653   -924796.959   6613840.595
10 0 59580  35382.000000  0    2080441.376  -1687831.524   6335756.216
10 0 59580  35502.000000  0    2464517.674  -2428560.300   5946300.598
10 0 59580  35622.000000  0    2792919.438  -3133119.786   5452285.276
10 0 59580  35742.000000  0    3060644.616  -3788169.862   4862361.707
10 0 59580  35862.000000  0    3263973.437  -4381150.243   4186875.659
10 0 59580  35982.000000  0    3400521.701  -4900527.722   3437689.988
10 0 59580  36102.000000  0    3469266.265  -5336026.973   2627977.664
10 0 59580  36222.000000  0    3470542.872  -5678840.744   1771989.058
10 0 59580  36342.000000  0    3406015.288  -5921813.652    884797.085
10 0 59580  36462.000000  0    3278617.100  -6059593.572    -17974.264
10 0 59580  36582.000000  0    3092468.533  -6088750.074   -920432.073
99
